[{"OBJECT_NAME":"STARLINK-34020","OBJECT_ID":"2025-098P","EPOCH":"2026-03-09T22:43:50.461248","MEAN_MOTION":15.00378099,"ECCENTRICITY":0.00060082,"INCLINATION":69.9999,"RA_OF_ASC_NODE":273.6983,"ARG_OF_PERICENTER":279.1052,"MEAN_ANOMALY":80.9428,"EPHEMERIS_TYPE":0,"CLASSIFICATION_TYPE":"U","NORAD_CAT_ID":63939,"ELEMENT_SET_NO":999,"REV_AT_EPOCH":4659,"BSTAR":0.10050739,"MEAN_MOTION_DOT":0.01381015,"MEAN_MOTION_DDOT":0},{"OBJECT_NAME":"QMR-KWT-2 (RS95S)","OBJECT_ID":"2025-313AV","EPOCH":"2026-03-09T22:24:23.954112","MEAN_MOTION":15.23495357,"ECCENTRICITY":0.00086588,"INCLINATION":97.4002,"RA_OF_ASC_NODE":145.3491,"ARG_OF_PERICENTER":352.0298,"MEAN_ANOMALY":8.08,"EPHEMERIS_TYPE":0,"CLASSIFICATION_TYPE":"U","NORAD_CAT_ID":67291,"ELEMENT_SET_NO":999,"REV_AT_EPOCH":1086,"BSTAR":0.00073635418,"MEAN_MOTION_DOT":0.00017543,"MEAN_MOTION_DDOT":0}]
